COSMOS 2251 DEB         
1 35701U 93036APW 24133.83427021  .00008522  00000+0  62599-2 0  9996
2 35701  74.0108 192.7325 0299467 165.3164 195.6902 13.76602229541796
COSMOS 2251 DEB         
1 35703U 93036APY 24148.55847227  .00006173  00000+0  82146-3 0  9998
2 35703  74.0486  81.1607 0085920 299.6306  59.6330 14.77332825582453
COSMOS 2251 DEB         
1 35705U 93036AQA 24133.37965296  .00031071  00000+0  84217-2 0  9996
2 35705  74.2931 144.4317 0055107 286.9256  72.5867 14.46599333774727
COSMOS 2251 DEB         
1 35706U 93036AQB 24152.65654024  .00001927  00000+0  16256-2 0  9998
2 35706  73.8881 266.3624 0354476  57.8822 305.6176 13.63087567544218
COSMOS 2251 DEB         
1 35711U 93036AQG 24152.85574944  .00001460  00000+0  28921-3 0  9993
2 35711  74.0480 212.5570 0087256  97.2893 263.8202 14.60821098795867
COSMOS 2251 DEB         
1 35716U 93036AQM 24152.43963286  .00000772  00000+0  16295-3 0  9999
2 35716  73.9930 185.3057 0090883 163.2287 262.1974 14.58641660794531
COSMOS 2251 DEB         
1 35717U 93036AQN 24138.81771753  .00006879  00000+0  25308-2 0  9990
2 35717  74.1630 181.4790 0086864 202.9743 156.7514 14.30702995658676
COSMOS 2251 DEB         
1 35718U 93036AQP 24150.61312656  .00005927  00000+0  14059-2 0  9990
2 35718  74.0474 126.1184 0022140 308.9204  50.9984 14.54038022576259
COSMOS 2251 DEB         
1 35721U 93036AQS 24148.23140829  .00005621  00000+0  20562-2 0  9997
2 35721  73.9529 130.8756 0160657  39.7951 321.4848 14.26197204774907
COSMOS 2251 DEB         
1 35724U 93036AQV 24152.63579754  .00002561  00000+0  57838-3 0  9999
2 35724  74.0327 286.7248 0063419 221.3574 138.2779 14.55564002794661
COSMOS 2251 DEB         
1 35726U 93036AQX 24152.36602155  .00044103  00000+0  40821-2 0  9994
2 35726  74.0372 169.7823 0020184  22.9398 337.2682 14.94145612583589
COSMOS 2251 DEB         
1 35729U 93036ARA 24138.60345384  .00038173  00000+0  52001-2 0  9999
2 35729  74.0274 257.2624 0022899 182.2549 190.0347 14.78337456799457
COSMOS 2251 DEB         
1 35759U 93036ARD 24147.95022377  .00002113  00000+0  41453-3 0  9999
2 35759  74.0394 219.4649 0079924 123.0926 237.7946 14.61344041578744
COSMOS 2251 DEB         
1 35771U 93036ARR 24150.13890133  .00005798  00000+0  32307-2 0  9999
2 35771  74.1711 204.3042 0279865 291.1967  65.9474 13.93214944757434
COSMOS 2251 DEB         
1 35773U 93036ART 24151.92274176  .00002768  00000+0  62553-3 0  9993
2 35773  74.0113 331.7339 0051792 266.0724  93.4517 14.55911316786582
COSMOS 2251 DEB         
1 35775U 93036ARV 24146.38215836  .00036043  00000+0  31841-2 0  9995
2 35775  74.0195 180.8911 0011970  94.2438 278.7557 14.96131039800210
COSMOS 2251 DEB         
1 35777U 93036ARX 24153.39504963  .00000745  00000+0  76596-3 0  9995
2 35777  73.7700 135.6355 0453019 112.8099  34.9919 13.40220322722875
COSMOS 2251 DEB         
1 35784U 93036ASE 24151.43337615  .00001407  00000+0  38482-3 0  9992
2 35784  74.0398  61.9116 0042747 328.9007  30.9622 14.47652135575767
COSMOS 2251 DEB         
1 35786U 93036ASG 24151.09398519  .00004140  00000+0  94150-3 0  9997
2 35786  74.0201  39.3513 0041204 301.0979  58.6144 14.55743235652032
COSMOS 2251 DEB         
1 35788U 93036ASJ 24151.70281377  .00056645  00000+0  51677-2 0  9993
2 35788  74.0035 278.8205 0010725 156.4903 203.6774 14.94748511793100
COSMOS 2251 DEB         
1 35789U 93036ASK 24153.19017526  .00000391  00000+0  14376-3 0  9995
2 35789  74.0386 230.8892 0047367 108.6395 251.9909 14.35207360531974
COSMOS 2251 DEB         
1 35793U 93036ASP 24148.07688383  .00007413  00000+0  15653-2 0  9996
2 35793  74.0477  73.5590 0010059 270.6398 102.3061 14.59490478575031
COSMOS 2251 DEB         
1 35796U 93036ASS 24134.39675337  .00019558  00000+0  40988-2 0  9996
2 35796  73.9986 179.7047 0032835  48.6968 311.7015 14.59330021632941
COSMOS 2251 DEB         
1 35824U 93036ASW 24150.63645484  .00002546  00000+0  17411-2 0  9997
2 35824  73.8442 292.4816 0266151 117.3250 245.5239 13.84460949764357
COSMOS 2251 DEB         
1 35825U 93036ASX 24148.28170282  .00002045  00000+0  15673-2 0  9997
2 35825  74.1188 347.9750 0363747 217.0796 140.4687 13.66927653754049
COSMOS 2251 DEB         
1 35829U 93036ATB 24153.52811653  .00008629  00000+0  19219-2 0  9992
2 35829  74.0325  98.5749 0015234 286.9311  73.0183 14.56959571795743
COSMOS 2251 DEB         
1 35830U 93036ATC 24151.88294422  .00004199  00000+0  19322-2 0  9993
2 35830  73.8650 201.7579 0133181 279.9196  78.6934 14.16867127767089
COSMOS 2251 DEB         
1 35834U 93036ATG 24152.64976615  .00000416  00000+0  22705-3 0  9991
2 35834  73.9318 220.6447 0108691 137.2909  15.4175 14.12140196583544
COSMOS 2251 DEB         
1 35835U 93036ATH 24152.64023786  .00005393  00000+0  37476-2 0  9993
2 35835  74.0635 127.8240 0301030  37.6778 324.5015 13.79412320539650
COSMOS 2251 DEB         
1 35836U 93036ATJ 24149.42860551  .00005637  00000+0  13576-2 0  9991
2 35836  74.0379 172.4492 0037678   6.4876 353.6765 14.53053850793219
