OBJECT_NAME,OBJECT_ID,EPOCH,MEAN_MOTION,ECCENTRICITY,INCLINATION,RA_OF_ASC_NODE,ARG_OF_PERICENTER,MEAN_ANOMALY,EPHEMERIS_TYPE,CLASSIFICATION_TYPE,NORAD_CAT_ID,ELEMENT_SET_NO,REV_AT_EPOCH,BSTAR,MEAN_MOTION_DOT,MEAN_MOTION_DDOT
COSMOS 2251 DEB,1993-036APW,2024-05-12T20:01:20.946144,13.76602229,0.0299467,74.0108,192.7325,165.3164,195.6902,0,U,35701,999,54179,0.0062599,8.522e-05,0
COSMOS 2251 DEB,1993-036APY,2024-05-27T13:24:12.004128,14.77332825,0.008592,74.0486,81.1607,299.6306,59.633,0,U,35703,999,58245,0.00082146,6.173e-05,0
COSMOS 2251 DEB,1993-036AQA,2024-05-12T09:06:42.015744,14.46599333,0.0055107,74.2931,144.4317,286.9256,72.5867,0,U,35705,999,77472,0.0084217,0.00031071,0
COSMOS 2251 DEB,1993-036AQB,2024-05-31T15:45:25.076736,13.63087567,0.0354476,73.8881,266.3624,57.8822,305.6176,0,U,35706,999,54421,0.0016256,1.927e-05,0
COSMOS 2251 DEB,1993-036AQG,2024-05-31T20:32:16.751616,14.60821098,0.0087256,74.048,212.557,97.2893,263.8202,0,U,35711,999,79586,0.00028921,1.46e-05,0
COSMOS 2251 DEB,1993-036AQM,2024-05-31T10:33:04.279104,14.5864166,0.0090883,73.993,185.3057,163.2287,262.1974,0,U,35716,999,79453,0.00016295,7.72e-06,0
COSMOS 2251 DEB,1993-036AQN,2024-05-17T19:37:30.794592,14.30702995,0.0086864,74.163,181.479,202.9743,156.7514,0,U,35717,999,65867,0.0025308,6.879e-05,0
COSMOS 2251 DEB,1993-036AQP,2024-05-29T14:42:54.134784,14.54038022,0.002214,74.0474,126.1184,308.9204,50.9984,0,U,35718,999,57625,0.0014059,5.927e-05,0
COSMOS 2251 DEB,1993-036AQS,2024-05-27T05:33:13.676256,14.26197204,0.0160657,73.9529,130.8756,39.7951,321.4848,0,U,35721,999,77490,0.0020562,5.621e-05,0
COSMOS 2251 DEB,1993-036AQV,2024-05-31T15:15:32.907456,14.55564002,0.0063419,74.0327,286.7248,221.3574,138.2779,0,U,35724,999,79466,0.00057838,2.561e-05,0
COSMOS 2251 DEB,1993-036AQX,2024-05-31T08:47:04.261920,14.94145612,0.0020184,74.0372,169.7823,22.9398,337.2682,0,U,35726,999,58358,0.0040821,0.00044103,0
COSMOS 2251 DEB,1993-036ARA,2024-05-17T14:28:58.411776,14.78337456,0.0022899,74.0274,257.2624,182.2549,190.0347,0,U,35729,999,79945,0.0052001,0.00038173,0
COSMOS 2251 DEB,1993-036ARD,2024-05-26T22:48:19.333728,14.61344041,0.0079924,74.0394,219.4649,123.0926,237.7946,0,U,35759,999,57874,0.00041453,2.113e-05,0
COSMOS 2251 DEB,1993-036ARR,2024-05-29T03:20:01.074912,13.93214944,0.0279865,74.1711,204.3042,291.1967,65.9474,0,U,35771,999,75743,0.0032307,5.798e-05,0
COSMOS 2251 DEB,1993-036ART,2024-05-30T22:08:44.888064,14.55911316,0.0051792,74.0113,331.7339,266.0724,93.4517,0,U,35773,999,78658,0.00062553,2.768e-05,0
COSMOS 2251 DEB,1993-036ARV,2024-05-25T09:10:18.482304,14.96131039,0.001197,74.0195,180.8911,94.2438,278.7557,0,U,35775,999,80021,0.0031841,0.00036043,0
COSMOS 2251 DEB,1993-036ARX,2024-06-01T09:28:52.288032,13.40220322,0.0453019,73.77,135.6355,112.8099,34.9919,0,U,35777,999,72287,0.00076596,7.45e-06,0
COSMOS 2251 DEB,1993-036ASE,2024-05-30T10:24:03.699360,14.47652135,0.0042747,74.0398,61.9116,328.9007,30.9622,0,U,35784,999,57576,0.00038482,1.407e-05,0
COSMOS 2251 DEB,1993-036ASG,2024-05-30T02:15:20.320416,14.55743235,0.0041204,74.0201,39.3513,301.0979,58.6144,0,U,35786,999,65203,0.0009415,4.14e-05,0
COSMOS 2251 DEB,1993-036ASJ,2024-05-30T16:52:03.109728,14.94748511,0.0010725,74.0035,278.8205,156.4903,203.6774,0,U,35788,999,79310,0.0051677,0.00056645,0
COSMOS 2251 DEB,1993-036ASK,2024-06-01T04:33:51.142464,14.3520736,0.0047367,74.0386,230.8892,108.6395,251.9909,0,U,35789,999,53197,0.00014376,3.91e-06,0
COSMOS 2251 DEB,1993-036ASP,2024-05-27T01:50:42.762912,14.59490478,0.0010059,74.0477,73.559,270.6398,102.3061,0,U,35793,999,57503,0.0015653,7.413e-05,0
COSMOS 2251 DEB,1993-036ASS,2024-05-13T09:31:19.491168,14.59330021,0.0032835,73.9986,179.7047,48.6968,311.7015,0,U,35796,999,63294,0.0040988,0.00019558,0
COSMOS 2251 DEB,1993-036ASW,2024-05-29T15:16:29.698176,13.84460949,0.0266151,73.8442,292.4816,117.325,245.5239,0,U,35824,999,76435,0.0017411,2.546e-05,0
COSMOS 2251 DEB,1993-036ASX,2024-05-27T06:45:39.123648,13.66927653,0.0363747,74.1188,347.975,217.0796,140.4687,0,U,35825,999,75404,0.0015673,2.045e-05,0
COSMOS 2251 DEB,1993-036ATB,2024-06-01T12:40:29.268192,14.56959571,0.0015234,74.0325,98.5749,286.9311,73.0183,0,U,35829,999,79574,0.0019219,8.629e-05,0
COSMOS 2251 DEB,1993-036ATC,2024-05-30T21:11:26.380608,14.16867127,0.0133181,73.865,201.7579,279.9196,78.6934,0,U,35830,999,76708,0.0019322,4.199e-05,0
COSMOS 2251 DEB,1993-036ATG,2024-05-31T15:35:39.795360,14.12140196,0.0108691,73.9318,220.6447,137.2909,15.4175,0,U,35834,999,58354,0.00022705,4.16e-06,0
COSMOS 2251 DEB,1993-036ATH,2024-05-31T15:21:56.551104,13.7941232,0.030103,74.0635,127.824,37.6778,324.5015,0,U,35835,999,53965,0.0037476,5.393e-05,0
COSMOS 2251 DEB,1993-036ATJ,2024-05-28T10:17:11.516064,14.5305385,0.0037678,74.0379,172.4492,6.4876,353.6765,0,U,35836,999,79321,0.0013576,5.637e-05,0
